NORAD_CAT_ID,OBJECT_NAME,OBJECT_TYPE,EPOCH,MEAN_MOTION,ECCENTRICITY,INCLINATION,RA_OF_ASC_NODE,ARG_OF_PERICENTER,MEAN_ANOMALY,BSTAR,MEAN_MOTION_DOT,MEAN_MOTION_DDOT,TLE_LINE0,TLE_LINE1,TLE_LINE2,SEMIMAJOR_AXIS,PERIOD,APOGEE,PERIGEE,DECAYED
53612.0,STARLINK-4658,PAYLOAD,2022-12-18 09:39:58,15.08828391,0.0002103,53.2165,119.23,42.8256,317.29,2.2007e-05,6.2e-07,0.0,0 STARLINK-4658,1 53612U 22104AA  22352.40275581  .00000062  00000-0  22007-4 0  9995,2 53612  53.2165 119.2300 0002103  42.8256 317.2900 15.08828391 17331,6917.916,95.438,541.236,538.326,0.0
53612.0,STARLINK-4658,PAYLOAD,2022-12-18 16:01:30,15.08839276,0.0002062,53.217,118.0407,44.1619,315.9538,4.7344e-05,4.65e-06,0.0,0 STARLINK-4658,1 53612U 22104AA  22352.66770911  .00000465  00000-0  47344-4 0  9998,2 53612  53.2170 118.0407 0002062  44.1619 315.9538 15.08839276 17374,6917.8830000000025,95.438,541.174,538.321,0.0
53612.0,STARLINK-4658,PAYLOAD,2022-12-19 09:30:44,15.08838061,0.0002325,53.2174,114.77,40.0592,320.0572,2.6394e-05,1.32e-06,0.0,0 STARLINK-4658,1 53612U 22104AA  22353.39635375  .00000132  00000-0  26394-4 0  9996,2 53612  53.2174 114.7700 0002325  40.0592 320.0572 15.08838061 18056,6917.886,95.438,541.36,538.143,0.0
53612.0,STARLINK-4658,PAYLOAD,2022-12-19 15:52:16,15.08850569,0.0002173,53.2175,113.5796,41.9672,318.1487,8.1707e-05,1.013e-05,0.0,0 STARLINK-4658,1 53612U 22104AA  22353.66130251  .00001013  00000-0  81707-4 0  9997,2 53612  53.2175 113.5796 0002173  41.9672 318.1487 15.08850569 18093,6917.848000000001,95.437,541.216,538.21,0.0
53612.0,STARLINK-4658,PAYLOAD,2022-12-20 14:07:40,15.0885085,0.0002125,53.2178,109.4162,39.951,320.1638,4.7496e-05,4.68e-06,0.0,0 STARLINK-4658,1 53612U 22104AA  22354.58865913  .00000468  00000-0  47496-4 0  9999,2 53612  53.2178 109.4162 0002125  39.9510 320.1638 15.08850850 18232,6917.847,95.437,541.182,538.242,0.0
53612.0,STARLINK-4658,PAYLOAD,2022-12-20 20:29:13,15.088446,0.0002075,53.217,108.2272,36.8933,323.2201,-8.5477e-06,-4.24e-06,0.0,0 STARLINK-4658,1 53612U 22104AA  22354.85362335 -.00000424  00000-0 -85477-5 0  9995,2 53612  53.2170 108.2272 0002075  36.8933 323.2201 15.08844600 17709,6917.866,95.437,541.1669999999998,538.2959999999998,0.0
53612.0,STARLINK-4658,PAYLOAD,2022-12-21 07:36:55,15.08831824,0.0001867,53.2184,106.1433,50.2595,309.8562,-5.8083e-05,-1.212e-05,0.0,0 STARLINK-4658,1 53612U 22104AA  22355.31731336 -.00001212  00000-0 -58083-4 0  9996,2 53612  53.2184 106.1433 0001867  50.2595 309.8562 15.08831824 17773,6917.905,95.438,541.062,538.479,0.0
53612.0,STARLINK-4658,PAYLOAD,2022-12-21 18:44:38,15.08837983,0.0001806,53.219,104.0623,60.3622,299.755,-0.00021454,-3.701e-05,0.0,0 STARLINK-4658,1 53612U 22104AA  22355.78099654 -.00003701  00000-0 -21454-3 0  9993,2 53612  53.2190 104.0623 0001806  60.3622 299.7550 15.08837983 18412,6917.887,95.438,541.001,538.502,0.0
53612.0,STARLINK-4658,PAYLOAD,2022-12-22 18:35:24,15.08835103,0.000214,53.2173,99.6028,37.1108,323.0032,-3.9539e-05,-9.17e-06,0.0,0 STARLINK-4658,1 53612U 22104AA  22356.77459389 -.00000917  00000-0 -39539-4 0  9998,2 53612  53.2173  99.6028 0002140  37.1108 323.0032 15.08835103 17994,6917.895,95.438,541.241,538.28,0.0
53612.0,STARLINK-4658,PAYLOAD,2022-12-23 13:40:02,15.08829705,0.0002076,53.2185,96.034,31.2258,328.8857,0.00010632,1.404e-05,0.0,0 STARLINK-4658,1 53612U 22104AA  22357.56947576  .00001404  00000-0  10632-3 0  9998,2 53612  53.2185  96.0340 0002076  31.2258 328.8857 15.08829705 18680,6917.9119999999975,95.438,541.2130000000002,538.341,0.0
53612.0,STARLINK-4658,PAYLOAD,2022-12-23 18:26:12,15.08831473,0.0002213,53.2181,95.1432,30.3238,329.7882,0.00013135,1.802e-05,0.0,0 STARLINK-4658,1 53612U 22104AA  22357.76819546  .00001802  00000-0  13135-3 0  9998,2 53612  53.2181  95.1432 0002213  30.3238 329.7882 15.08831473 18716,6917.906,95.438,541.302,538.241,0.0
53612.0,STARLINK-4658,PAYLOAD,2022-12-23 23:12:20,15.08840235,0.000216,53.2174,94.252,29.7406,330.3708,0.00015634,2.201e-05,0.0,0 STARLINK-4658,1 53612U 22104AA  22357.96690920  .00002201  00000-0  15634-3 0  9993,2 53612  53.2174  94.2520 0002160  29.7406 330.3708 15.08840235 18177,6917.88,95.438,541.239,538.25,0.0
53612.0,STARLINK-4658,PAYLOAD,2022-12-24 05:33:53,15.08845073,0.0002183,53.2173,93.0627,30.1277,329.9840000000001,8.208799999999999e-05,1.019e-05,0.0,0 STARLINK-4658,1 53612U 22104AA  22358.23186811  .00001019  00000-0  82088-4 0  9997,2 53612  53.2173  93.0627 0002183  30.1277 329.9840 15.08845073 18781,6917.865,95.437,541.24,538.22,0.0
53612.0,STARLINK-4658,PAYLOAD,2022-12-24 13:30:50,15.08838595,0.0002216,53.2186,91.5752,29.4471,330.6646,-6.6728e-05,-1.35e-05,0.0,0 STARLINK-4658,1 53612U 22104AA  22358.56307914 -.00001350  00000-0 -66728-4 0  9995,2 53612  53.2186  91.5752 0002216  29.4471 330.6646 15.08838595 18268,6917.885,95.438,541.283,538.217,0.0
53612.0,STARLINK-4658,PAYLOAD,2022-12-24 18:16:59,15.08844621,0.0002078,53.2165,90.6843,32.3099,327.802,-0.00011927,-2.186e-05,0.0,0 STARLINK-4658,1 53612U 22104AA  22358.76179614 -.00002186  00000-0 -11927-3 0  9999,2 53612  53.2165  90.6843 0002078  32.3099 327.8020 15.08844621 18868,6917.866,95.437,541.169,538.294,0.0
53612.0,STARLINK-4658,PAYLOAD,2022-12-24 23:03:08,15.08844052,0.0002308,53.2189,89.7909,28.8685,331.2434,-4.4574e-05,-9.98e-06,0.0,0 STARLINK-4658,1 53612U 22104AA  22358.96051417 -.00000998  00000-0 -44574-4 0  9995,2 53612  53.2189  89.7909 0002308  28.8685 331.2434 15.08844052 18320,6917.868,95.437,541.33,538.136,0.0
53612.0,STARLINK-4658,PAYLOAD,2022-12-25 08:35:27,15.08835256,0.0002276,53.2176,88.0072,30.0451,330.0671,-1.8256e-05,-5.79e-06,0.0,0 STARLINK-4658,1 53612U 22104AA  22359.35795966 -.00000579  00000-0 -18256-4 0  9996,2 53612  53.2176  88.0072 0002276  30.0451 330.0671 15.08835256 18381,6917.895,95.438,541.3340000000002,538.185,0.0
53612.0,STARLINK-4658,PAYLOAD,2022-12-25 14:57:00,15.08837102,0.0002253,53.2179,86.8177,33.2912,326.8222,-6.2651e-06,-3.88e-06,0.0,0 STARLINK-4658,1 53612U 22104AA  22359.62291839 -.00000388  00000-0 -62651-5 0  9993,2 53612  53.2179  86.8177 0002253  33.2912 326.8222 15.08837102 18992,6917.889,95.438,541.313,538.196,0.0
53612.0,STARLINK-4658,PAYLOAD,2022-12-25 22:53:55,15.08838896,0.0002277,53.2178,85.331,32.9587,327.1546,-3.2954e-05,-8.13e-06,0.0,0 STARLINK-4658,1 53612U 22104AA  22359.95411851 -.00000813  00000-0 -32954-4 0  9992,2 53612  53.2178  85.3310 0002277  32.9587 327.1546 15.08838896 19045,6917.884,95.438,541.3240000000002,538.174,0.0
53612.0,STARLINK-4658,PAYLOAD,2022-12-26 17:58:34,15.08821458,0.000242,53.2173,81.7626,31.9242,328.1896,8.968700000000001e-05,1.139e-05,0.0,0 STARLINK-4658,1 53612U 22104AA  22360.74900662  .00001139  00000-0  89687-4 0  9999,2 53612  53.2173  81.7626 0002420  31.9242 328.1896 15.08821458 19165,6917.937,95.439,541.476,538.128,0.0
53612.0,STARLINK-4658,PAYLOAD,2022-12-26 22:44:43,15.08834941,0.0002311,53.2181,80.8709,30.0628,330.0497,-2.4179e-05,-6.73e-06,0.0,0 STARLINK-4658,1 53612U 22104AA  22360.94772261 -.00000673  00000-0 -24179-4 0  9992,2 53612  53.2181  80.8709 0002311  30.0628 330.0497 15.08834941 18623,6917.896,95.438,541.36,538.1619999999998,0.0
53612.0,STARLINK-4658,PAYLOAD,2022-12-27 11:27:47,15.08838747,0.0002271,53.2181,78.4912,32.4617,327.6514,4.2947e-05,3.95e-06,0.0,0 STARLINK-4658,1 53612U 22104AA  22361.47763847  .00000395  00000-0  42947-4 0  9993,2 53612  53.2181  78.4912 0002271  32.4617 327.6514 15.08838747 19273,6917.884,95.438,541.32,538.178,0.0
53612.0,STARLINK-4658,PAYLOAD,2022-12-27 14:38:33,15.0884843,0.0002426,53.2173,77.8964,33.5432,326.5713,0.0001114,1.485e-05,0.0,0 STARLINK-4658,1 53612U 22104AA  22361.61010880  .00001485  00000-0  11140-3 0  9992,2 53612  53.2173  77.8964 0002426  33.5432 326.5713 15.08848430 19294,6917.855,95.437,541.398,538.0409999999998,0.0
53612.0,STARLINK-4658,PAYLOAD,2022-12-28 14:29:20,15.08845581,0.000299,53.2182,73.4396,33.511,326.6071,6.6209e-06,-1.83e-06,0.0,0 STARLINK-4658,1 53612U 22104AA  22362.60371314 -.00000183  00000-0  66209-5 0  9997,2 53612  53.2182  73.4396 0002990  33.5110 326.6071 15.08845581 18879,6917.863,95.437,541.797,537.66,0.0
53612.0,STARLINK-4658,PAYLOAD,2022-12-28 22:26:18,15.08809714,0.0002871,53.2196,71.95100000000002,36.0886,324.03,9.1336e-05,1.164e-05,0.0,0 STARLINK-4658,1 53612U 22104AA  22362.93493361  .00001164  00000-0  91336-4 0  9997,2 53612  53.2196  71.9510 0002871  36.0886 324.0300 15.08809714 18922,6917.973000000001,95.439,541.8240000000002,537.852,0.0
53612.0,STARLINK-4658,PAYLOAD,2022-12-29 11:09:23,15.0882657,0.0002693,53.2188,69.5726,32.8702,327.2457,-0.00018383,-3.212e-05,0.0,0 STARLINK-4658,1 53612U 22104AA  22363.46485462 -.00003212  00000-0 -18383-3 0  9997,2 53612  53.2188  69.5726 0002693  32.8702 327.2457 15.08826570 19005,6917.920999999999,95.438,541.649,537.923,0.0
53612.0,STARLINK-4658,PAYLOAD,2022-12-30 11:00:09,15.08832714,0.0002468,53.2175,65.1103,32.2857,327.8286,0.00013008,1.782e-05,0.0,0 STARLINK-4658,1 53612U 22104AA  22364.45844263  .00001782  00000-0  13008-3 0  9992,2 53612  53.2175  65.1103 0002468  32.2857 327.8286 15.08832714 19156,6917.903,95.438,541.475,538.06,0.0
53612.0,STARLINK-4658,PAYLOAD,2022-12-30 14:10:55,15.08839133,0.0002571,53.2178,64.5159,32.0063,328.1085,0.00017442,2.489e-05,0.0,0 STARLINK-4658,1 53612U 22104AA  22364.59091776  .00002489  00000-0  17442-3 0  9991,2 53612  53.2178  64.5159 0002571  32.0063 328.1085 15.08839133 19170,6917.8830000000025,95.438,541.5269999999998,537.969,0.0
53612.0,STARLINK-4658,PAYLOAD,2022-12-31 04:29:22,15.0884928,0.0002561,53.2179,61.8397,31.2731,328.8413,0.00030771,4.614e-05,0.0,0 STARLINK-4658,1 53612U 22104AA  22365.18706516  .00004614  00000-0  30771-3 0  9994,2 53612  53.2179  61.8397 0002561  31.2731 328.8413 15.08849280 19263,6917.852,95.437,541.489,537.945,0.0
